C/2020 H8 (PANSTARRS),e,99.6481,68.4084,128.9391,594.8403,0.0000679,0.99213995,0.0000,06/04.4587/2020,2000,g 10.5,4.0
# From MPEC 2020-L06
A/2020 H9,e,137.8806,213.1356,312.9116,558.7991,0.0000746,0.99538388,0.0000,12/21.4302/2019,2000,g 18.0,2.0
# From MPEC 2021-R75
C/2020 J1 (SONEAR),h,04/18.6002/2021,142.2952,226.5821,341.7545,1.000367,3.355180,2000,8.5,3.2
# From MPEC 2021-R75
C/2020 K1 (PANSTARRS),e,89.6559,94.3640,213.9678,9887,0.0000010,0.99968906,0.0000,05/09.1113/2023,2000,g  5.5,4.0
# From MPEC 2021-N06
C/2020 K2 (PANSTARRS),h,08/05.6011/2020,91.0379,288.3493,67.3157,1.002879,8.878725,2000,10.8,4.0
# From MPEC 2020-KF9
C/2020 K3 (Leonard),p,06/01.0032/2020,129.0152,64.4924,1.583069,28.3546,2000,14.5,4.0
# From MPEC 2020-L06
C/2020 K4 (PANSTARRS),e,125.5670,264.1051,308.7894,23.88255,0.0084447,0.92657329,4.6724,09/08.0/2021,2000,g 16.5,4.0
# From MPEC 2021-R75
C/2020 K5 (PANSTARRS),h,06/05.5725/2021,67.1515,86.1643,249.5900,1.001507,1.535677,2000,11.0,4.0
# From MPEC 2021-R75
C/2020 K6 (Rankin),h,09/15.4373/2021,103.6431,291.5260,44.2940,1.003025,5.868344,2000,8.0,4.0
# From MPEC 2021-R75
C/2020 K7 (PANSTARRS),e,32.0432,286.0778,358.2166,102.7515,0.0009463,0.93783378,0.6436,09/08.0/2021,2000,g  8.0,4.0
# From MPEC 2021-P47
C/2020 K8 (Catalina-ATLAS),h,09/14.5243/2020,31.4210,181.5274,260.0330,1.000158,0.474248,2000,15.0,3.2
# From MPEC 2021-BE3
P/2020 K9 (Lemmon-PANSTARRS),e,23.2099,166.2402,196.8978,4.199119,0.1145425,0.32139428,23.8362,09/08.0/2021,2000,g 12.5,4.0
# From MPEC 2020-K19
P/2020 M1 (PANSTARRS),e,8.6768,142.8572,69.5812,5.198552,0.0831535,0.48302388,51.5849,09/08.0/2021,2000,g 14.5,4.0
# From MPEC 2021-N06
C/2020 M3 (ATLAS),e,23.4718,71.2398,328.4560,26.88687,0.0070696,0.95283482,2.2436,09/08.0/2021,2000,g 14.5,4.0
# From MPEC 2021-R75
A/2020 M4,e,160.1268,348.6233,104.6498,13531,0.0000006,0.99956008,0.0000,11/24.0008/2020,2000,g 14.5,2.0
# From MPEC 2021-R75
C/2020 M5 (ATLAS),h,08/19.8805/2021,93.2231,352.0944,126.3391,1.000026,3.004351,2000,9.0,4.0
# From MPEC 2021-N06
C/2020 N1 (PANSTARRS),h,03/12.2187/2021,29.7032,279.9793,186.7655,1.000530,1.320609,2000,12.5,4.0
# From MPEC 2021-P47
C/2020 N2 (ATLAS),e,161.0344,257.0858,331.2482,101.9290,0.0009578,0.98239725,0.0000,08/23.7290/2020,2000,g 16.0,3.2
# From MPEC 2020-SI8
P/2020 O1 (Lemmon-PANSTARRS),e,5.2259,175.9771,104.5295,2.644500,0.2291863,0.11946575,113.0656,09/08.0/2021,2000,g 15.5,4.0
# From MPEC 2021-R75
C/2020 O2 (Amaral),h,08/28.5288/2021,71.7477,256.7559,10.2981,1.002482,4.862159,2000,8.0,3.2
# From MPEC 2020-SI8
P/2020 O3 (PANSTARRS),e,8.4413,266.8388,81.5737,4.652515,0.0982138,0.10438593,21.6743,09/08.0/2021,2000,g 12.0,4.0
# From MPEC 2021-BE3
C/2020 P1 (NEOWISE),h,10/20.1830/2020,45.0686,53.5278,8.8904,1.000267,0.341987,2000,14.0,3.2
# From MPEC 2021-R75
C/2020 P3 (ATLAS),e,61.8850,19.4810,82.2491,9194,0.0000011,0.99925901,0.0000,04/20.8599/2021,2000,g  6.0,4.0
# From MPEC 2021-R75
C/2020 PV6 (PANSTARRS),e,128.2393,329.1440,71.3791,41.70776,0.0036591,0.94495888,359.9342,09/08.0/2021,2000,g 10.0,4.0
# From MPEC 2021-N06
C/2020 Q1 (Borisov),e,142.9151,52.4173,9.9025,58.91689,0.0021794,0.97768444,0.0000,08/14.6230/2020,2000,g 14.0,4.0
# From MPEC 2021-R75
C/2020 R2 (PANSTARRS),e,53.2255,195.0921,211.7160,413.0142,0.0001174,0.98863952,0.0000,02/24.3510/2022,2000,g  9.0,4.0
# From MPEC 2021-P47
C/2020 R4 (ATLAS),e,164.4633,323.2734,46.7176,97.89857,0.0010175,0.98949224,0.0000,03/01.9427/2021,2000,g 13.5,4.0
# From MPEC 2020-W26
P/2020 R5 (PANSTARRS),e,11.4533,272.9747,82.3981,4.981426,0.0886489,0.31467364,41.4297,09/08.0/2021,2000,g  9.5,6.0
# From MPEC 2020-W26
C/2020 R6 (Rankin),e,82.8209,12.1744,271.9549,537.6858,0.0000791,0.99418494,0.0000,09/10.1077/2019,2000,g 11.0,4.0
# From MPEC 2021-R75
C/2020 R7 (ATLAS),e,114.8923,268.2791,347.8247,10891,0.0000009,0.99972855,0.0000,09/16.2352/2022,2000,g  7.0,3.2
# From MPEC 2021-BE3
P/2020 S1 (PANSTARRS),e,13.7339,129.4592,254.9019,5.982562,0.0673555,0.50732829,15.7582,09/08.0/2021,2000,g 14.0,4.0
# From MPEC 2021-BE3
C/2020 S2 (PANSTARRS),e,22.3979,197.6784,202.2794,10.19038,0.0302983,0.82767486,7.8787,09/08.0/2021,2000,g 17.0,4.0
# From MPEC 2021-R75
C/2020 S3 (Erasmus),e,19.8796,222.9271,349.9157,187.4606,0.0003840,0.99787691,0.0000,12/12.6872/2020,2000,g 13.5,3.2
# From MPEC 2021-R75
C/2020 S4 (PANSTARRS),h,02/09.4658/2023,20.5743,117.7163,21.0325,1.000038,3.369037,2000,8.5,3.2
# From MPEC 2021-BE3
P/2020 S5 (PANSTARRS),e,12.3540,315.9991,53.0617,4.050159,0.1209194,0.33852530,47.8152,09/08.0/2021,2000,g 14.5,4.0
# From MPEC 2021-P47
P/2020 S6 (Leonard),e,15.4588,242.5630,176.6602,3.599778,0.1443081,0.47921904,41.6146,09/08.0/2021,2000,g 16.0,4.0
# From MPEC 2021-BE3
P/2020 S7 (PANSTARRS),e,16.0921,328.0178,40.4389,5.024082,0.0875223,0.41057886,25.7126,09/08.0/2021,2000,g 14.5,4.0
# From MPEC 2021-P47
C/2020 S8 (Lemmon),e,108.5213,24.0525,160.3359,276.7922,0.0002140,0.99145986,0.0000,04/10.9346/2021,2000,g 12.5,4.0
# From MPEC 2021-R75
C/2020 T2 (Palomar),e,27.8730,83.0482,150.3864,311.0731,0.0001796,0.99339480,0.0000,07/11.1547/2021,2000,g 11.0,3.2
# From MPEC 2021-N06
P/2020 T3 (PANSTARRS),e,7.2953,74.0147,357.0384,3.517436,0.1494049,0.59161434,34.4428,09/08.0/2021,2000,g 18.0,3.2
# From MPEC 2021-N06
C/2020 T4 (PANSTARRS),h,07/05.2549/2021,83.8141,50.6192,79.6071,1.000057,2.191845,2000,13.0,3.2
# From MPEC 2021-BE3
C/2020 T5 (Lemmon),e,66.5976,237.8615,90.3013,846.7531,0.0000400,0.99776890,0.0000,10/09.6265/2020,2000,g 16.0,4.0
# From MPEC 2021-N06
P/2020 U2 (PANSTARRS),e,6.4212,342.8995,84.6436,3.777779,0.1342299,0.51063777,34.4024,09/08.0/2021,2000,g 18.0,4.0
# From MPEC 2021-P47
C/2020 U3 (Rankin),e,30.1753,282.6797,124.2674,65.20106,0.0018721,0.96508977,0.4006,09/08.0/2021,2000,g 15.0,4.0
# From MPEC 2021-P47
C/2020 U4 (PANSTARRS),h,04/07.8127/2022,167.0366,120.0185,69.5205,1.001853,5.353858,2000,7.0,4.0
# From MPEC 2021-R75
C/2020 U5 (PANSTARRS),e,97.2741,107.3410,75.4115,8492,0.0000013,0.99955772,0.0000,04/27.8489/2022,2000,g  8.0,4.0
# From MPEC 2021-R75
C/2020 V2 (ZTF),h,05/08.4423/2023,131.6043,212.3516,162.3878,1.001344,2.228327,2000,4.9,4.0
# From MPEC 2021-N06
P/2020 V3 (PANSTARRS),e,23.0316,198.2713,249.3146,8.366795,0.0407254,0.25536423,8.6145,09/08.0/2021,2000,g  8.3,4.0
# From MPEC 2021-R75
P/2020 V4 (Rankin),e,14.2429,203.5039,256.9911,9.344781,0.0345025,0.44904117,1.7998,09/08.0/2021,2000,g  9.0,4.0
# From MPEC 2021-BE3
P/2020 W1 (Rankin),e,10.7918,124.2602,264.8440,7.200523,0.0510103,0.26559544,26.5716,09/08.0/2021,2000,g 10.0,4.0
# From MPEC 2021-BE3
C/2020 W5 (Lemmon),h,11/30.0889/2020,88.5836,75.5070,24.4795,1.000847,3.364213,2000,15.0,4.0
# From MPEC 2021-P47
P/2020 X1 (ATLAS),e,31.6973,56.0242,323.2569,4.526089,0.1023575,0.36542853,42.4450,09/08.0/2021,2000,g 13.0,4.0
# From MPEC 2021-N06
C/2020 X2 (ATLAS),e,18.1901,105.4571,347.3398,16.39817,0.0148426,0.76654466,4.3964,09/08.0/2021,2000,g 10.6,4.0
# From MPEC 2021-R75
C/2020 X4 (Leonard),e,80.5368,161.8932,140.0202,43.62467,0.0034206,0.88062576,1.0144,09/08.0/2021,2000,g  9.0,4.0
# From MPEC 2021-R75
C/2020 Y2 (ATLAS),e,101.2926,26.5087,266.0977,1227,0.0000229,0.99744776,0.0000,06/17.6559/2022,2000,g  6.5,4.0
# From MPEC 2021-R75
C/2020 Y3 (ATLAS),e,83.1001,191.4306,342.0373,149.7165,0.0005380,0.98664705,0.0000,12/03.4697/2020,2000,g 13.5,4.0
# From MPEC 2021-R75
C/2021 A1 (Leonard),h,01/03.2997/2022,132.6853,255.8930,225.0917,1.000068,0.615237,2000,8.5,4.0
# From MPEC 2021-N06
C/2021 A2 (NEOWISE),e,106.9776,125.2376,338.8390,252.3990,0.0002458,0.99440240,0.0000,01/22.6223/2021,2000,g 13.5,4.0
# From MPEC 2021-R75
C/2021 A4 (NEOWISE),e,111.5703,307.0852,204.6655,42.96939,0.0034992,0.97333950,0.0000,03/20.0321/2021,2000,g 16.0,4.0
# From MPEC 2021-BE3
P/2021 A5 (PANSTARRS),e,18.1882,328.7669,61.1235,3.046386,0.1853646,0.13971658,55.6834,09/08.0/2021,2000,g 15.0,4.0
# From MPEC 2021-P47
C/2021 A6 (PANSTARRS),e,75.6119,164.0790,351.7396,11718,0.0000008,0.99932339,0.0000,05/04.8808/2021,2000,g  7.0,4.0
# From MPEC 2021-N06
C/2021 A7 (NEOWISE),e,78.1498,154.5192,356.0601,6443,0.0000019,0.99969461,0.0000,07/15.3190/2021,2000,g 10.0,4.0
# From MPEC 2021-P47
C/2021 A9 (PANSTARRS),h,12/01.4564/2023,158.0289,314.8407,211.4744,1.004325,7.758308,2000,6.0,4.0
# From MPEC 2021-N06
C/2021 A10 (NEOWISE),e,151.5258,188.3491,82.2729,93.19643,0.0010955,0.98638751,0.0000,03/15.2675/2021,2000,g 19.0,4.0
# From MPEC 2021-O56
C/2021 B2 (PANSTARRS),e,38.0934,120.5555,334.9668,344.2529,0.0001543,0.99269993,0.0000,05/04.2601/2021,2000,g 14.0,4.0
# From MPEC 2021-N06
C/2021 B3 (NEOWISE),e,119.4867,67.2872,293.5577,34.94310,0.0047716,0.93818129,0.8641,09/08.0/2021,2000,g 13.5,4.0
# From MPEC 2021-P47
C/2021 C1 (Rankin),e,143.0418,186.8934,336.3108,26029,0.0000002,0.99986626,0.0000,12/07.1382/2020,2000,g 11.5,4.0
# From MPEC 2021-P47
P/2021 C2 (PANSTARRS),e,21.9270,66.4895,78.7951,9.537386,0.0334626,0.48727305,6.5484,09/08.0/2021,2000,g 12.0,4.0
# From MPEC 2021-N06
C/2021 C3 (Catalina),e,122.1637,181.9224,357.1476,63.31108,0.0019565,0.96404414,0.4061,09/08.0/2021,2000,g 14.0,4.0
# From MPEC 2021-P47
C/2021 C4 (ATLAS),e,132.8451,194.2755,320.2357,7742,0.0000014,0.99941822,0.0000,01/17.0966/2021,2000,g  9.0,4.0
# From MPEC 2021-N06
C/2021 C5 (PANSTARRS),e,50.7878,323.6910,270.9173,6280,0.0000020,0.99948381,0.0000,02/10.9985/2023,2000,g  9.0,4.0
# From MPEC 2021-N06
C/2021 C6 (Lemmon),h,11/13.3225/2021,164.6260,332.1554,203.5621,1.002050,3.271329,2000,12.0,4.0
# From MPEC 2021-N06
C/2021 D1 (SWAN),e,31.4605,311.2713,72.2258,97.03075,0.0010312,0.99070604,0.0000,02/27.6151/2021,2000,g 13.0,4.0
# From MPEC 2021-R75
C/2021 D2 (ZTF),h,02/03.9883/2022,83.8313,305.6763,125.0312,1.001226,2.946274,2000,9.0,4.0
# From MPEC 2021-N06
A/2021 E2,e,167.4878,190.8137,342.4628,235.4348,0.0002728,0.99028099,0.0000,12/10.4736/2020,2000,g 15.0,2.0
# From MPEC 2021-R75
C/2021 E3 (ZTF),h,06/11.9253/2022,112.5642,104.4631,228.8473,1.000714,1.777416,2000,8.5,4.0
# From MPEC 2021-P47
